ONEWEB-0637             
1 56078U 23043AJ  26158.69878161 -.00000089  00000+0 -27050-3 0  9991
2 56078  87.9004 261.1054 0002239  99.5267 260.6117 13.15549193155183
ONEWEB-0647             
1 56079U 23043AK  26158.69403014 -.00000082  00000+0 -25291-3 0  9991
2 56079  87.9002 261.1185 0001850  96.3299 263.8042 13.15548739155171
ONEWEB-0651             
1 56080U 23043AL  26158.84138866  .00000000  00000+0 -32936-4 0  9994
2 56080  87.8999 261.0826 0002149  95.8363 264.3013 13.15548934156392
ONEWEB-0718             
1 56081U 23043AM  26158.76056247 -.00000062  00000+0 -19941-3 0  9997
2 56081  87.9001 261.0791 0002196 113.5007 246.6354 13.15550737155196
ONEWEB-0561             
1 56710U 23068A   26158.72808944 -.00002185  00000+0 -54093-2 0  9992
2 56710  87.9206 276.3340 0001540  84.7301 275.4008 13.20751981148254
ONEWEB-0668             
1 56711U 23068B   26158.70130909 -.00000018  00000+0 -81847-4 0  9992
2 56711  87.9102 230.6559 0002561 104.9985 255.1429 13.16593492150534
ONEWEB-0676             
1 56712U 23068C   26158.70921001  .00000023  00000+0  27206-4 0  9997
2 56712  87.9104 230.6603 0002183  90.3130 269.8251 13.16596027150450
ONEWEB-0677             
1 56713U 23068D   26158.71627503  .00000021  00000+0  19266-4 0  9994
2 56713  87.9194 276.3223 0002316  95.8114 264.3284 13.20770035148557
ONEWEB-0678             
1 56714U 23068E   26158.72888138  .00000123  00000+0  29325-3 0  9998
2 56714  87.9009 261.0769 0001651  98.0233 262.1085 13.15548293148049
ONEWEB-0679             
1 56715U 23068F   26158.74405674 -.00000001  00000+0 -36670-4 0  9990
2 56715  87.9104 230.6447 0002621  96.2864 263.8566 13.16594244150480
ONEWEB-0680             
1 56716U 23068G   26158.70954088 -.00000026  00000+0 -95681-4 0  9999
2 56716  87.9266 245.8558 0002600 103.7825 256.3599 13.21827460149845
ONEWEB-0681             
1 56717U 23068H   26158.69019328 -.00000036  00000+0 -11823-3 0  9993
2 56717  87.9259 245.8613 0002358  75.7208 284.4188 13.21826530149835
ONEWEB-0682             
1 56718U 23068J   26158.75265742  .00000069  00000+0  14835-3 0  9994
2 56718  87.9008 261.0728 0002456 104.2223 255.9180 13.15548515148212
ONEWEB-0683             
1 56719U 23068K   26158.70036760 -.00000073  00000+0 -22847-3 0  9995
2 56719  87.9011 261.0830 0002169 105.8236 254.3134 13.15548996148173
ONEWEB-0684             
1 56720U 23068L   26158.70828345 -.00000017  00000+0 -78997-4 0  9991
2 56720  87.9009 261.0716 0000932 138.0854 222.0348 13.15547766148000
ONEWEB-0686             
1 56721U 23068M   26158.70447941  .00000020  00000+0  18427-4 0  9995
2 56721  87.9092 230.6769 0002104 108.4407 251.6953 13.16593832150460
ONEWEB-0694             
1 56722U 23068N   26158.71080992  .00000057  00000+0  11584-3 0  9992
2 56722  87.9112 230.6381 0002475 103.3121 256.8286 13.16594163150523
ONEWEB-0696             
1 56723U 23068P   26158.74154169  .00001724  00000+0  45434-2 0  9996
2 56723  87.8942 261.1075 0001535  73.9875 286.1425 13.15558211148124
ONEWEB-0703             
1 56724U 23068Q   26158.75106961  .00000069  00000+0  14932-3 0  9996
2 56724  87.9003 261.0829 0001383  76.9470 283.1815 13.15547991148016
ONEWEB-0721             
1 56725U 23068R   26158.75815519  .00000111  00000+0  23166-3 0  9990
2 56725  86.6766  88.5254 0001942  78.5418 281.5933 13.22468763156697
ONEWEB-0015             
1 61594U 24188A   26158.84866714  .00000537  00000+0  14785-2 0  9995
2 61594  87.8895  22.9519 0002323  78.1981 281.9407 13.11416965 83238
ONEWEB-0687             
1 61595U 24188B   26158.81468881 -.00000275  00000+0 -74204-3 0  9990
2 61595  87.9135   7.7417 0002307  91.0692 269.0703 13.17649161 84666
ONEWEB-0688             
1 61596U 24188C   26158.61557146  .00000007  00000+0 -15113-4 0  9999
2 61596  87.9135   7.7813 0002956  73.5049 286.6407 13.17647824 84635
ONEWEB-0689             
1 61597U 24188D   26158.65367388 -.00000439  00000+0 -12732-2 0  9993
2 61597  87.8911  22.9478 0001986  93.6827 266.4528 13.11418734 83204
ONEWEB-0690             
1 61598U 24188E   26158.66384991 -.00000174  00000+0 -52769-3 0  9995
2 61598  87.8905  22.9579 0001475  65.0383 295.0898 13.11420460 83389
ONEWEB-0691             
1 61599U 24188F   26158.65876962 -.00000447  00000+0 -12980-2 0  9992
2 61599  87.8917  22.8666 0002180  82.5940 277.5436 13.11417273 83231
ONEWEB-0692             
1 61600U 24188G   26158.60282027  .00000450  00000+0  12339-2 0  9993
2 61600  87.8897  22.9926 0001526 112.3357 247.7933 13.11419366 83212
ONEWEB-0693             
1 61601U 24188H   26157.33645798  .00000037  00000+0  61299-4 0  9993
2 61601  87.9129   8.0549 0001389  66.5698 293.5579 13.17649651 84453
ONEWEB-0695             
1 61602U 24188J   26158.65536926 -.00000585  00000+0 -16871-2 0  9996
2 61602  87.8905  22.9746 0001797 102.1737 257.9593 13.11416676 83219
ONEWEB-0697             
1 61603U 24188K   26158.61130226  .00000439  00000+0  12023-2 0  9997
2 61603  87.8898  22.9732 0001358 108.2474 251.8802 13.11417688 83191
ONEWEB-0698             
1 61604U 24188L   26158.66554066 -.00000168  00000+0 -50997-3 0  9999
2 61604  87.8893  22.9766 0000626  86.9300 273.1900 13.11419801 83220
