OBJECT_NAME,OBJECT_ID,EPOCH,MEAN_MOTION,ECCENTRICITY,INCLINATION,RA_OF_ASC_NODE,ARG_OF_PERICENTER,MEAN_ANOMALY,EPHEMERIS_TYPE,CLASSIFICATION_TYPE,NORAD_CAT_ID,ELEMENT_SET_NO,REV_AT_EPOCH,BSTAR,MEAN_MOTION_DOT,MEAN_MOTION_DDOT
ONEWEB-0637,2023-043AJ,2026-06-07T16:46:14.731104,13.15549193,.0002239,87.9004,261.1054,99.5267,260.6117,0,U,56078,999,15518,-.2705E-3,-.89E-6,0
ONEWEB-0647,2023-043AK,2026-06-07T16:39:24.204096,13.15548739,.000185,87.9002,261.1185,96.3299,263.8042,0,U,56079,999,15517,-.25291E-3,-.82E-6,0
ONEWEB-0651,2023-043AL,2026-06-07T20:11:35.980224,13.15548934,.0002149,87.8999,261.0826,95.8363,264.3013,0,U,56080,999,15639,-.32936E-4,0,0
ONEWEB-0718,2023-043AM,2026-06-07T18:15:12.597408,13.15550737,.0002196,87.9001,261.0791,113.5007,246.6354,0,U,56081,999,15519,-.19941E-3,-.62E-6,0
ONEWEB-0561,2023-068A,2026-06-07T17:28:26.927616,13.20751981,.000154,87.9206,276.3340,84.7301,275.4008,0,U,56710,999,14825,-.54093E-2,-.2185E-4,0
ONEWEB-0668,2023-068B,2026-06-07T16:49:53.105376,13.16593492,.0002561,87.9102,230.6559,104.9985,255.1429,0,U,56711,999,15053,-.81847E-4,-.18E-6,0
ONEWEB-0676,2023-068C,2026-06-07T17:01:15.744864,13.16596027,.0002183,87.9104,230.6603,90.3130,269.8251,0,U,56712,999,15045,.27206E-4,.23E-6,0
ONEWEB-0677,2023-068D,2026-06-07T17:11:26.162592,13.20770035,.0002316,87.9194,276.3223,95.8114,264.3284,0,U,56713,999,14855,.19266E-4,.21E-6,0
ONEWEB-0678,2023-068E,2026-06-07T17:29:35.351232,13.15548293,.0001651,87.9009,261.0769,98.0233,262.1085,0,U,56714,999,14804,.29325E-3,.123E-5,0
ONEWEB-0679,2023-068F,2026-06-07T17:51:26.502336,13.16594244,.0002621,87.9104,230.6447,96.2864,263.8566,0,U,56715,999,15048,-.3667E-4,-.1E-7,0
ONEWEB-0680,2023-068G,2026-06-07T17:01:44.332032,13.21827460,.00026,87.9266,245.8558,103.7825,256.3599,0,U,56716,999,14984,-.95681E-4,-.26E-6,0
ONEWEB-0681,2023-068H,2026-06-07T16:33:52.699392,13.21826530,.0002358,87.9259,245.8613,75.7208,284.4188,0,U,56717,999,14983,-.11823E-3,-.36E-6,0
ONEWEB-0682,2023-068J,2026-06-07T18:03:49.601088,13.15548515,.0002456,87.9008,261.0728,104.2223,255.9180,0,U,56718,999,14821,.14835E-3,.69E-6,0
ONEWEB-0683,2023-068K,2026-06-07T16:48:31.760640,13.15548996,.0002169,87.9011,261.0830,105.8236,254.3134,0,U,56719,999,14817,-.22847E-3,-.73E-6,0
ONEWEB-0684,2023-068L,2026-06-07T16:59:55.690080,13.15547766,.0000932,87.9009,261.0716,138.0854,222.0348,0,U,56720,999,14800,-.78997E-4,-.17E-6,0
ONEWEB-0686,2023-068M,2026-06-07T16:54:27.021024,13.16593832,.0002104,87.9092,230.6769,108.4407,251.6953,0,U,56721,999,15046,.18427E-4,.2E-6,0
ONEWEB-0694,2023-068N,2026-06-07T17:03:33.977088,13.16594163,.0002475,87.9112,230.6381,103.3121,256.8286,0,U,56722,999,15052,.11584E-3,.57E-6,0
ONEWEB-0696,2023-068P,2026-06-07T17:47:49.202016,13.15558211,.0001535,87.8942,261.1075,73.9875,286.1425,0,U,56723,999,14812,.45434E-2,.1724E-4,0
ONEWEB-0703,2023-068Q,2026-06-07T18:01:32.414304,13.15547991,.0001383,87.9003,261.0829,76.9470,283.1815,0,U,56724,999,14801,.14932E-3,.69E-6,0
ONEWEB-0721,2023-068R,2026-06-07T18:11:44.608416,13.22468763,.0001942,86.6766,88.5254,78.5418,281.5933,0,U,56725,999,15669,.23166E-3,.111E-5,0
ONEWEB-0015,2024-188A,2026-06-07T20:22:04.840896,13.11416965,.0002323,87.8895,22.9519,78.1981,281.9407,0,U,61594,999,8323,.14785E-2,.537E-5,0
ONEWEB-0687,2024-188B,2026-06-07T19:33:09.113184,13.17649161,.0002307,87.9135,7.7417,91.0692,269.0703,0,U,61595,999,8466,-.74204E-3,-.275E-5,0
ONEWEB-0688,2024-188C,2026-06-07T14:46:25.374144,13.17647824,.0002956,87.9135,7.7813,73.5049,286.6407,0,U,61596,999,8463,-.15113E-4,.7E-7,0
ONEWEB-0689,2024-188D,2026-06-07T15:41:17.423232,13.11418734,.0001986,87.8911,22.9478,93.6827,266.4528,0,U,61597,999,8320,-.12732E-2,-.439E-5,0
ONEWEB-0690,2024-188E,2026-06-07T15:55:56.632224,13.11420460,.0001475,87.8905,22.9579,65.0383,295.0898,0,U,61598,999,8338,-.52769E-3,-.174E-5,0
ONEWEB-0691,2024-188F,2026-06-07T15:48:37.695168,13.11417273,.000218,87.8917,22.8666,82.5940,277.5436,0,U,61599,999,8323,-.1298E-2,-.447E-5,0
ONEWEB-0692,2024-188G,2026-06-07T14:28:03.671328,13.11419366,.0001526,87.8897,22.9926,112.3357,247.7933,0,U,61600,999,8321,.12339E-2,.45E-5,0
ONEWEB-0693,2024-188H,2026-06-06T08:04:29.969472,13.17649651,.00013896,87.9129,8.0549,66.5698,293.5579,0,U,61601,999,8445,.61298914E-4,.37E-6,0
ONEWEB-0695,2024-188J,2026-06-07T15:43:43.904064,13.11416676,.0001797,87.8905,22.9746,102.1737,257.9593,0,U,61602,999,8321,-.16871E-2,-.585E-5,0
ONEWEB-0697,2024-188K,2026-06-07T14:40:16.515264,13.11417688,.0001358,87.8898,22.9732,108.2474,251.8802,0,U,61603,999,8319,.12023E-2,.439E-5,0
ONEWEB-0698,2024-188L,2026-06-07T15:58:22.713024,13.11419801,.0000626,87.8893,22.9766,86.9300,273.1900,0,U,61604,999,8322,-.50997E-3,-.168E-5,0
